[{"OBJECT_NAME":"GEESAT-2 02","OBJECT_ID":"2024-023B","EPOCH":"2026-03-09T22:42:12.929472","MEAN_MOTION":14.82898782,"ECCENTRICITY":0.0015318,"INCLINATION":49.9973,"RA_OF_ASC_NODE":93.7389,"ARG_OF_PERICENTER":336.8316,"MEAN_ANOMALY":23.193,"EPHEMERIS_TYPE":0,"CLASSIFICATION_TYPE":"U","NORAD_CAT_ID":58906,"ELEMENT_SET_NO":999,"REV_AT_EPOCH":11418,"BSTAR":0.00033923041,"MEAN_MOTION_DOT":2.557e-5,"MEAN_MOTION_DDOT":0},{"OBJECT_NAME":"SL-14 R\/B","OBJECT_ID":"1991-042B","EPOCH":"2026-03-09T21:25:37.354080","MEAN_MOTION":14.81829845,"ECCENTRICITY":0.00157979,"INCLINATION":82.4923,"RA_OF_ASC_NODE":219.9918,"ARG_OF_PERICENTER":237.9189,"MEAN_ANOMALY":122.0492,"EPHEMERIS_TYPE":0,"CLASSIFICATION_TYPE":"U","NORAD_CAT_ID":21423,"ELEMENT_SET_NO":999,"REV_AT_EPOCH":85310,"BSTAR":7.8975647e-5,"MEAN_MOTION_DOT":6.48e-6,"MEAN_MOTION_DDOT":0}]
